start=new Date('2023-03-12T00:00:00.000Z').valueOf();
sats=[{"OBJECT_ID":"2022-029AM","EPHEMERIS_TYPE":"0","OBJECT_NAME":"STARLINK-3725","GP_ID":"227856924","CLASSIFICATION_TYPE":"U","REV_AT_EPOCH":"5567","CENTER_NAME":"EARTH","SITE":"AFETR","COUNTRY_CODE":"US","REF_FRAME":"TEME","EPOCH":"2023-03-11T00:14:33.764928","TLE_LINE1":"1 52123U 22029AM  23070.01011302  .00028065  00000-0  17750-2 0  9991","TLE_LINE2":"2 52123  53.2149 303.3345 0001344  96.4564 263.6581 15.08828925 55678","MEAN_MOTION_DDOT":"0.0000000000000","PERIAPSIS":"538.849","PERIOD":"95.438","MEAN_MOTION":"15.08828925","LAUNCH_DATE":"2022-03-19","INCLINATION":"53.2149","BSTAR":"0.00177500000000","OBJECT_TYPE":"PAYLOAD","ECCENTRICITY":"0.00013440","RA_OF_ASC_NODE":"303.3345","SEMIMAJOR_AXIS":"6917.914","MEAN_MOTION_DOT":"0.00028065","NORAD_CAT_ID":"52123","TIME_SYSTEM":"UTC","MEAN_ELEMENT_THEORY":"SGP4","DECAY_DATE":null,"RCS_SIZE":"LARGE","APOAPSIS":"540.709","MEAN_ANOMALY":"263.6581","FILE":"3857581","ELEMENT_SET_NO":"999","ARG_OF_PERICENTER":"96.4564"},{"SEMIMAJOR_AXIS":"6917.876","MEAN_MOTION_DOT":"0.00024456","NORAD_CAT_ID":"52124","TIME_SYSTEM":"UTC","MEAN_ELEMENT_THEORY":"SGP4","RA_OF_ASC_NODE":"312.9409","APOAPSIS":"540.667","FILE":"3857581","MEAN_ANOMALY":"308.4501","ELEMENT_SET_NO":"999","ARG_OF_PERICENTER":"51.6611","DECAY_DATE":null,"RCS_SIZE":"LARGE","PERIOD":"95.437","MEAN_MOTION":"15.08841522","LAUNCH_DATE":"2022-03-19","MEAN_MOTION_DDOT":"0.0000000000000","PERIAPSIS":"538.814","OBJECT_TYPE":"PAYLOAD","ECCENTRICITY":"0.00013390","INCLINATION":"53.2154","BSTAR":"0.00154930000000","EPOCH":"2023-03-11T02:20:25.154304","COUNTRY_CODE":"US","REF_FRAME":"TEME","TLE_LINE2":"2 52124  53.2154 312.9409 0001339  51.6611 308.4501 15.08841522 55546","TLE_LINE1":"1 52124U 22029AN  23070.09751336  .00024456  00000-0  15493-2 0  9990","OBJECT_ID":"2022-029AN","OBJECT_NAME":"STARLINK-3684","EPHEMERIS_TYPE":"0","GP_ID":"227857174","REV_AT_EPOCH":"5554","CENTER_NAME":"EARTH","SITE":"AFETR","CLASSIFICATION_TYPE":"U"},{"RCS_SIZE":"LARGE","DECAY_DATE":null,"ELEMENT_SET_NO":"999","ARG_OF_PERICENTER":"59.7056","FILE":"3857581","MEAN_ANOMALY":"300.4015","APOAPSIS":"540.170","RA_OF_ASC_NODE":"303.0469","MEAN_ELEMENT_THEORY":"SGP4","MEAN_MOTION_DOT":"0.00032874","NORAD_CAT_ID":"52125","TIME_SYSTEM":"UTC","SEMIMAJOR_AXIS":"6917.750","INCLINATION":"53.2170","BSTAR":"0.00207160000000","ECCENTRICITY":"0.00008030","OBJECT_TYPE":"PAYLOAD","PERIAPSIS":"539.059","MEAN_MOTION_DDOT":"0.0000000000000","LAUNCH_DATE":"2022-03-19","MEAN_MOTION":"15.08882670","PERIOD":"95.435","TLE_LINE1":"1 52125U 22029AP  23070.07267031  .00032874  00000-0  20716-2 0  9990","TLE_LINE2":"2 52125  53.2170 303.0469 0000803  59.7056 300.4015 15.08882670 55685","REF_FRAME":"TEME","COUNTRY_CODE":"US","EPOCH":"2023-03-11T01:44:38.714784","CLASSIFICATION_TYPE":"U","SITE":"AFETR","CENTER_NAME":"EARTH","REV_AT_EPOCH":"5568","GP_ID":"227858424","EPHEMERIS_TYPE":"0","OBJECT_NAME":"STARLINK-3727","OBJECT_ID":"2022-029AP"},{"CLASSIFICATION_TYPE":"U","SITE":"AFETR","REV_AT_EPOCH":"5567","CENTER_NAME":"EARTH","GP_ID":"227858174","OBJECT_ID":"2022-029AQ","EPHEMERIS_TYPE":"0","OBJECT_NAME":"STARLINK-3732","TLE_LINE1":"1 52126U 22029AQ  23070.08003122  .00034853  00000-0  21971-2 0  9994","TLE_LINE2":"2 52126  53.2160 303.0176 0001343  88.3887 271.7259 15.08840582 55675","REF_FRAME":"TEME","COUNTRY_CODE":"US","EPOCH":"2023-03-11T01:55:14.697408","BSTAR":"0.00219710000000","INCLINATION":"53.2160","OBJECT_TYPE":"PAYLOAD","ECCENTRICITY":"0.00013430","MEAN_MOTION_DDOT":"0.0000000000000","PERIAPSIS":"538.815","LAUNCH_DATE":"2022-03-19","PERIOD":"95.438","MEAN_MOTION":"15.08840582","DECAY_DATE":null,"RCS_SIZE":"LARGE","ELEMENT_SET_NO":"999","ARG_OF_PERICENTER":"88.3887","APOAPSIS":"540.673","FILE":"3857581","MEAN_ANOMALY":"271.7259","RA_OF_ASC_NODE":"303.0176","MEAN_ELEMENT_THEORY":"SGP4","SEMIMAJOR_AXIS":"6917.879","MEAN_MOTION_DOT":"0.00034853","NORAD_CAT_ID":"52126","TIME_SYSTEM":"UTC"},{"COUNTRY_CODE":"US","REF_FRAME":"TEME","EPOCH":"2023-03-11T00:03:57.500640","TLE_LINE1":"1 52127U 22029AR  23070.00274885  .00030897  00000-0  19506-2 0  9998","TLE_LINE2":"2 52127  53.2150 303.3637 0000946  96.9435 263.1665 15.08845318 55669","OBJECT_ID":"2022-029AR","EPHEMERIS_TYPE":"0","OBJECT_NAME":"STARLINK-3715","GP_ID":"227857425","CLASSIFICATION_TYPE":"U","REV_AT_EPOCH":"5566","CENTER_NAME":"EARTH","SITE":"AFETR","RA_OF_ASC_NODE":"303.3637","SEMIMAJOR_AXIS":"6917.864","MEAN_MOTION_DOT":"0.00030897","NORAD_CAT_ID":"52127","TIME_SYSTEM":"UTC","MEAN_ELEMENT_THEORY":"SGP4","DECAY_DATE":null,"RCS_SIZE":"LARGE","APOAPSIS":"540.384","FILE":"3857581","MEAN_ANOMALY":"263.1665","ELEMENT_SET_NO":"999","ARG_OF_PERICENTER":"96.9435","MEAN_MOTION_DDOT":"0.0000000000000","PERIAPSIS":"539.075","PERIOD":"95.437","MEAN_MOTION":"15.08845318","LAUNCH_DATE":"2022-03-19","INCLINATION":"53.2150","BSTAR":"0.00195060000000","OBJECT_TYPE":"PAYLOAD","ECCENTRICITY":"0.00009460"},{"TLE_LINE1":"1 52129U 22029AT  23070.65778728  .00007945  00000-0  51665-3 0  9997","TLE_LINE2":"2 52129  53.2155 300.4174 0001533 108.6217 251.4942 15.08842830 55778","COUNTRY_CODE":"US","REF_FRAME":"TEME","EPOCH":"2023-03-11T15:47:12.820992","CLASSIFICATION_TYPE":"U","REV_AT_EPOCH":"5577","CENTER_NAME":"EARTH","SITE":"AFETR","OBJECT_ID":"2022-029AT","EPHEMERIS_TYPE":"0","OBJECT_NAME":"STARLINK-3661","GP_ID":"227889734","DECAY_DATE":null,"RCS_SIZE":"LARGE","APOAPSIS":"540.797","FILE":"3857847","MEAN_ANOMALY":"251.4942","ARG_OF_PERICENTER":"108.6217","ELEMENT_SET_NO":"999","RA_OF_ASC_NODE":"300.4174","SEMIMAJOR_AXIS":"6917.872","TIME_SYSTEM":"UTC","MEAN_MOTION_DOT":"0.00007945","NORAD_CAT_ID":"52129","MEAN_ELEMENT_THEORY":"SGP4","BSTAR":"0.00051665000000","INCLINATION":"53.2155","OBJECT_TYPE":"PAYLOAD","ECCENTRICITY":"0.00015330","MEAN_MOTION_DDOT":"0.0000000000000","PERIAPSIS":"538.676","PERIOD":"95.437","MEAN_MOTION":"15.08842830","LAUNCH_DATE":"2022-03-19"},{"CLASSIFICATION_TYPE":"U","SITE":"AFETR","CENTER_NAME":"EARTH","REV_AT_EPOCH":"5577","GP_ID":"227890985","OBJECT_NAME":"STARLINK-3711","EPHEMERIS_TYPE":"0","OBJECT_ID":"2022-029AV","TLE_LINE1":"1 52131U 22029AV  23070.65410900  .00000143  00000-0  27060-4 0  9991","TLE_LINE2":"2 52131  53.2155 300.4406 0001158  89.3582 270.7543 15.08832521 55779","REF_FRAME":"TEME","COUNTRY_CODE":"US","EPOCH":"2023-03-11T15:41:55.017600","INCLINATION":"53.2155","BSTAR":"0.00002706000000","ECCENTRICITY":"0.00011580","OBJECT_TYPE":"PAYLOAD","PERIAPSIS":"538.967","MEAN_MOTION_DDOT":"0.0000000000000","LAUNCH_DATE":"2022-03-19","MEAN_MOTION":"15.08832521","PERIOD":"95.438","RCS_SIZE":"LARGE","DECAY_DATE":null,"ELEMENT_SET_NO":"999","ARG_OF_PERICENTER":"89.3582","FILE":"3857847","MEAN_ANOMALY":"270.7543","APOAPSIS":"540.569","RA_OF_ASC_NODE":"300.4406","MEAN_ELEMENT_THEORY":"SGP4","NORAD_CAT_ID":"52131","MEAN_MOTION_DOT":"0.00000143","TIME_SYSTEM":"UTC","SEMIMAJOR_AXIS":"6917.903"},{"BSTAR":"0.00054780000000","INCLINATION":"53.2151","OBJECT_TYPE":"PAYLOAD","ECCENTRICITY":"0.00013590","MEAN_MOTION_DDOT":"0.0000000000000","PERIAPSIS":"538.830","PERIOD":"95.438","MEAN_MOTION":"15.08831994","LAUNCH_DATE":"2022-03-19","DECAY_DATE":null,"RCS_SIZE":"LARGE","APOAPSIS":"540.710","FILE":"3857581","MEAN_ANOMALY":"288.3482","ELEMENT_SET_NO":"999","ARG_OF_PERICENTER":"71.7658","RA_OF_ASC_NODE":"303.0830","SEMIMAJOR_AXIS":"6917.905","TIME_SYSTEM":"UTC","MEAN_MOTION_DOT":"0.00008439","NORAD_CAT_ID":"52132","MEAN_ELEMENT_THEORY":"SGP4","CLASSIFICATION_TYPE":"U","REV_AT_EPOCH":"5568","CENTER_NAME":"EARTH","SITE":"AFETR","OBJECT_ID":"2022-029AW","OBJECT_NAME":"STARLINK-3718","EPHEMERIS_TYPE":"0","GP_ID":"227858675","TLE_LINE1":"1 52132U 22029AW  23070.06531244  .00008439  00000-0  54780-3 0  9996","TLE_LINE2":"2 52132  53.2151 303.0830 0001359  71.7658 288.3482 15.08831994 55688","COUNTRY_CODE":"US","REF_FRAME":"TEME","EPOCH":"2023-03-11T01:34:02.994816"},{"INCLINATION":"53.2153","BSTAR":"0.00050014000000","ECCENTRICITY":"0.00014220","OBJECT_TYPE":"PAYLOAD","PERIAPSIS":"538.802","MEAN_MOTION_DDOT":"0.0000000000000","LAUNCH_DATE":"2022-03-19","MEAN_MOTION":"15.08826933","PERIOD":"95.438","RCS_SIZE":"LARGE","DECAY_DATE":null,"ELEMENT_SET_NO":"999","ARG_OF_PERICENTER":"58.7208","FILE":"3857581","MEAN_ANOMALY":"301.3923","APOAPSIS":"540.769","RA_OF_ASC_NODE":"303.1515","MEAN_ELEMENT_THEORY":"SGP4","TIME_SYSTEM":"UTC","MEAN_MOTION_DOT":"0.00007678","NORAD_CAT_ID":"52133","SEMIMAJOR_AXIS":"6917.920","CLASSIFICATION_TYPE":"U","SITE":"AFETR","CENTER_NAME":"EARTH","REV_AT_EPOCH":"5568","GP_ID":"227856925","EPHEMERIS_TYPE":"0","OBJECT_NAME":"STARLINK-3707","OBJECT_ID":"2022-029AX","TLE_LINE1":"1 52133U 22029AX  23070.05059310  .00007678  00000-0  50014-3 0  9995","TLE_LINE2":"2 52133  53.2153 303.1515 0001422  58.7208 301.3923 15.08826933 55682","REF_FRAME":"TEME","COUNTRY_CODE":"US","EPOCH":"2023-03-11T01:12:51.243840"},{"FILE":"3857581","MEAN_ANOMALY":"270.8680","APOAPSIS":"540.704","ARG_OF_PERICENTER":"89.2470","ELEMENT_SET_NO":"999","RCS_SIZE":"LARGE","DECAY_DATE":null,"NORAD_CAT_ID":"52134","MEAN_MOTION_DOT":"0.00007670","TIME_SYSTEM":"UTC","SEMIMAJOR_AXIS":"6917.885","MEAN_ELEMENT_THEORY":"SGP4","RA_OF_ASC_NODE":"303.1341","ECCENTRICITY":"0.00013790","OBJECT_TYPE":"PAYLOAD","BSTAR":"0.00049948000000","INCLINATION":"53.2148","MEAN_MOTION":"15.08838457","PERIOD":"95.438","LAUNCH_DATE":"2022-03-19","PERIAPSIS":"538.796","MEAN_MOTION_DDOT":"0.0000000000000","TLE_LINE2":"2 52134  53.2148 303.1341 0001379  89.2470 270.8680 15.08838457 55689","TLE_LINE1":"1 52134U 22029AY  23070.05426887  .00007670  00000-0  49948-3 0  9999","EPOCH":"2023-03-11T01:18:08.830368","COUNTRY_CODE":"US","REF_FRAME":"TEME","CENTER_NAME":"EARTH","REV_AT_EPOCH":"5568","SITE":"AFETR","CLASSIFICATION_TYPE":"U","OBJECT_NAME":"STARLINK-3721","EPHEMERIS_TYPE":"0","OBJECT_ID":"2022-029AY","GP_ID":"227857175"}];
